start=new Date('2023-05-16T00:00:00.000Z').valueOf();
sats=[{"EPHEMERIS_TYPE":"0","TIME_SYSTEM":"UTC","TLE_LINE2":"2 53180  53.2184  64.0362 0001166 101.1289 258.9835 15.08834249 47183","GP_ID":"231866799","SITE":"AFETR","EPOCH":"2023-05-15T12:33:02.521440","MEAN_ANOMALY":"258.9835","OBJECT_NAME":"STARLINK-4258","OBJECT_ID":"2022-083BA","SEMIMAJOR_AXIS":"6917.898","MEAN_MOTION_DOT":"-0.00000494","RCS_SIZE":"LARGE","REV_AT_EPOCH":"4718","RA_OF_ASC_NODE":"64.0362","ECCENTRICITY":"0.00011660","INCLINATION":"53.2184","ARG_OF_PERICENTER":"101.1289","OBJECT_TYPE":"PAYLOAD","MEAN_MOTION":"15.08834249","PERIAPSIS":"538.956","CLASSIFICATION_TYPE":"U","PERIOD":"95.438","FILE":"3908449","COUNTRY_CODE":"US","BSTAR":"-0.00001294600000","NORAD_CAT_ID":"53180","CENTER_NAME":"EARTH","TLE_LINE1":"1 53180U 22083BA  23135.52294585 -.00000494  00000-0 -12946-4 0  9991","MEAN_MOTION_DDOT":"0.0000000000000","REF_FRAME":"TEME","DECAY_DATE":null,"LAUNCH_DATE":"2022-07-17","ELEMENT_SET_NO":"999","APOAPSIS":"540.570","MEAN_ELEMENT_THEORY":"SGP4"},{"NORAD_CAT_ID":"53181","CENTER_NAME":"EARTH","COUNTRY_CODE":"US","BSTAR":"0.00002754800000","FILE":"3908681","CLASSIFICATION_TYPE":"U","PERIOD":"95.437","MEAN_MOTION":"15.08844675","PERIAPSIS":"538.945","OBJECT_TYPE":"PAYLOAD","RA_OF_ASC_NODE":"64.0290","ECCENTRICITY":"0.00011370","INCLINATION":"53.2180","ARG_OF_PERICENTER":"74.5330","APOAPSIS":"540.518","MEAN_ELEMENT_THEORY":"SGP4","ELEMENT_SET_NO":"999","LAUNCH_DATE":"2022-07-17","DECAY_DATE":null,"REF_FRAME":"TEME","TLE_LINE1":"1 53181U 22083BB  23135.52196513  .00000151  00000-0  27548-4 0  9996","MEAN_MOTION_DDOT":"0.0000000000000","GP_ID":"231894981","SITE":"AFETR","TIME_SYSTEM":"UTC","TLE_LINE2":"2 53181  53.2180  64.0290 0001137  74.5330 285.5788 15.08844675 46544","EPHEMERIS_TYPE":"0","REV_AT_EPOCH":"4654","SEMIMAJOR_AXIS":"6917.866","RCS_SIZE":"LARGE","MEAN_MOTION_DOT":"0.00000151","OBJECT_ID":"2022-083BB","OBJECT_NAME":"STARLINK-4273","MEAN_ANOMALY":"285.5788","EPOCH":"2023-05-15T12:31:37.787232"},{"TIME_SYSTEM":"UTC","TLE_LINE2":"2 53182  53.2168  79.1071 0000857  98.7781 261.3308 15.08839719 46971","GP_ID":"231866821","SITE":"AFETR","EPHEMERIS_TYPE":"0","REV_AT_EPOCH":"4697","OBJECT_ID":"2022-083BC","SEMIMAJOR_AXIS":"6917.881","MEAN_MOTION_DOT":"0.00000758","RCS_SIZE":"LARGE","MEAN_ANOMALY":"261.3308","OBJECT_NAME":"STARLINK-4278","EPOCH":"2023-05-15T13:09:25.583328","NORAD_CAT_ID":"53182","CENTER_NAME":"EARTH","FILE":"3908450","COUNTRY_CODE":"US","BSTAR":"0.00006567400000","MEAN_MOTION":"15.08839719","PERIAPSIS":"539.153","CLASSIFICATION_TYPE":"U","PERIOD":"95.438","INCLINATION":"53.2168","RA_OF_ASC_NODE":"79.1071","ECCENTRICITY":"0.00008570","ARG_OF_PERICENTER":"98.7781","OBJECT_TYPE":"PAYLOAD","ELEMENT_SET_NO":"999","APOAPSIS":"540.339","MEAN_ELEMENT_THEORY":"SGP4","LAUNCH_DATE":"2022-07-17","DECAY_DATE":null,"REF_FRAME":"TEME","TLE_LINE1":"1 53182U 22083BC  23135.54821277  .00000758  00000-0  65674-4 0  9996","MEAN_MOTION_DDOT":"0.0000000000000"},{"OBJECT_ID":"2022-083BD","MEAN_MOTION_DOT":"0.00004276","RCS_SIZE":"LARGE","SEMIMAJOR_AXIS":"6917.808","REV_AT_EPOCH":"4640","EPOCH":"2023-05-15T02:13:36.922080","MEAN_ANOMALY":"273.4269","OBJECT_NAME":"STARLINK-4268","TLE_LINE2":"2 53183  53.2170  71.0728 0001230  86.6863 273.4269 15.08863587 46406","TIME_SYSTEM":"UTC","SITE":"AFETR","GP_ID":"231895979","EPHEMERIS_TYPE":"0","LAUNCH_DATE":"2022-07-17","DECAY_DATE":null,"ELEMENT_SET_NO":"999","MEAN_ELEMENT_THEORY":"SGP4","APOAPSIS":"540.524","MEAN_MOTION_DDOT":"0.0000000000000","TLE_LINE1":"1 53183U 22083BD  23135.09278845  .00004276  00000-0  28640-3 0  9994","REF_FRAME":"TEME","FILE":"3908681","BSTAR":"0.00028640000000","COUNTRY_CODE":"US","CENTER_NAME":"EARTH","NORAD_CAT_ID":"53183","ARG_OF_PERICENTER":"86.6863","RA_OF_ASC_NODE":"71.0728","ECCENTRICITY":"0.00012300","INCLINATION":"53.2170","OBJECT_TYPE":"PAYLOAD","PERIAPSIS":"538.822","MEAN_MOTION":"15.08863587","PERIOD":"95.436","CLASSIFICATION_TYPE":"U"},{"TLE_LINE2":"2 53184  53.2185  63.9199 0001714 104.8180 255.3002 15.08844055 46556","TIME_SYSTEM":"UTC","GP_ID":"231895232","SITE":"AFETR","EPHEMERIS_TYPE":"0","OBJECT_ID":"2022-083BE","MEAN_MOTION_DOT":"0.00002408","RCS_SIZE":"LARGE","SEMIMAJOR_AXIS":"6917.868","REV_AT_EPOCH":"4655","EPOCH":"2023-05-15T11:59:48.340320","MEAN_ANOMALY":"255.3002","OBJECT_NAME":"STARLINK-4257","FILE":"3908681","BSTAR":"0.00016931000000","COUNTRY_CODE":"US","CENTER_NAME":"EARTH","NORAD_CAT_ID":"53184","ARG_OF_PERICENTER":"104.8180","RA_OF_ASC_NODE":"63.9199","ECCENTRICITY":"0.00017140","INCLINATION":"53.2185","OBJECT_TYPE":"PAYLOAD","PERIAPSIS":"538.547","MEAN_MOTION":"15.08844055","PERIOD":"95.437","CLASSIFICATION_TYPE":"U","LAUNCH_DATE":"2022-07-17","DECAY_DATE":null,"ELEMENT_SET_NO":"999","MEAN_ELEMENT_THEORY":"SGP4","APOAPSIS":"540.919","MEAN_MOTION_DDOT":"0.0000000000000","TLE_LINE1":"1 53184U 22083BE  23135.49986505  .00002408  00000-0  16931-3 0  9993","REF_FRAME":"TEME"},{"REV_AT_EPOCH":"4531","MEAN_MOTION_DOT":"0.00001173","RCS_SIZE":"LARGE","SEMIMAJOR_AXIS":"6941.162","OBJECT_ID":"2022-084A","OBJECT_NAME":"STARLINK-4391","MEAN_ANOMALY":"151.8141","EPOCH":"2023-05-15T16:02:32.828928","SITE":"AFWTR","GP_ID":"231901368","TLE_LINE2":"2 53189  97.6554 197.2009 0003969 208.2868 151.8141 15.01255229 45319","TIME_SYSTEM":"UTC","EPHEMERIS_TYPE":"0","MEAN_ELEMENT_THEORY":"SGP4","APOAPSIS":"565.782","ELEMENT_SET_NO":"999","LAUNCH_DATE":"2022-07-22","DECAY_DATE":null,"REF_FRAME":"TEME","TLE_LINE1":"1 53189U 22084A   23135.66843552  .00001173  00000-0  95901-4 0  9995","MEAN_MOTION_DDOT":"0.0000000000000","CENTER_NAME":"EARTH","NORAD_CAT_ID":"53189","BSTAR":"0.00009590100000","COUNTRY_CODE":"US","FILE":"3908801","PERIOD":"95.920","CLASSIFICATION_TYPE":"U","PERIAPSIS":"560.272","MEAN_MOTION":"15.01255229","OBJECT_TYPE":"PAYLOAD","ARG_OF_PERICENTER":"208.2868","RA_OF_ASC_NODE":"197.2009","ECCENTRICITY":"0.00039690","INCLINATION":"97.6554"},{"RCS_SIZE":"LARGE","MEAN_MOTION_DOT":"0.00001252","SEMIMAJOR_AXIS":"6941.160","OBJECT_ID":"2022-084B","REV_AT_EPOCH":"4560","EPOCH":"2023-05-15T16:50:33.025632","OBJECT_NAME":"STARLINK-4332","MEAN_ANOMALY":"265.2060","GP_ID":"231926796","SITE":"AFWTR","TLE_LINE2":"2 53190  97.6543 197.2300 0001810  94.9371 265.2060 15.01255600 45600","TIME_SYSTEM":"UTC","EPHEMERIS_TYPE":"0","DECAY_DATE":null,"LAUNCH_DATE":"2022-07-22","MEAN_ELEMENT_THEORY":"SGP4","APOAPSIS":"564.282","ELEMENT_SET_NO":"999","MEAN_MOTION_DDOT":"0.0000000000000","TLE_LINE1":"1 53190U 22084B   23135.70177113  .00001252  00000-0  10206-3 0  9997","REF_FRAME":"TEME","BSTAR":"0.00010206000000","COUNTRY_CODE":"US","FILE":"3908892","CENTER_NAME":"EARTH","NORAD_CAT_ID":"53190","OBJECT_TYPE":"PAYLOAD","ARG_OF_PERICENTER":"94.9371","RA_OF_ASC_NODE":"197.2300","ECCENTRICITY":"0.00018100","INCLINATION":"97.6543","PERIOD":"95.920","CLASSIFICATION_TYPE":"U","PERIAPSIS":"561.769","MEAN_MOTION":"15.01255600"},{"COUNTRY_CODE":"US","BSTAR":"0.00011029000000","FILE":"3908802","NORAD_CAT_ID":"53191","CENTER_NAME":"EARTH","OBJECT_TYPE":"PAYLOAD","ECCENTRICITY":"0.00036790","RA_OF_ASC_NODE":"197.1970","INCLINATION":"97.6567","ARG_OF_PERICENTER":"195.3452","CLASSIFICATION_TYPE":"U","PERIOD":"95.920","MEAN_MOTION":"15.01255988","PERIAPSIS":"560.471","DECAY_DATE":null,"LAUNCH_DATE":"2022-07-22","APOAPSIS":"565.578","MEAN_ELEMENT_THEORY":"SGP4","ELEMENT_SET_NO":"999","TLE_LINE1":"1 53191U 22084C   23135.66288311  .00001358  00000-0  11029-3 0  9997","MEAN_MOTION_DDOT":"0.0000000000000","REF_FRAME":"TEME","SITE":"AFWTR","GP_ID":"231901223","TIME_SYSTEM":"UTC","TLE_LINE2":"2 53191  97.6567 197.1970 0003679 195.3452 164.7661 15.01255988 45306","EPHEMERIS_TYPE":"0","SEMIMAJOR_AXIS":"6941.159","RCS_SIZE":"LARGE","MEAN_MOTION_DOT":"0.00001358","OBJECT_ID":"2022-084C","REV_AT_EPOCH":"4530","EPOCH":"2023-05-15T15:54:33.100704","OBJECT_NAME":"STARLINK-4369","MEAN_ANOMALY":"164.7661"},{"FILE":"3908802","BSTAR":"0.00012186000000","COUNTRY_CODE":"US","CENTER_NAME":"EARTH","NORAD_CAT_ID":"53192","ARG_OF_PERICENTER":"208.4585","ECCENTRICITY":"0.00021610","RA_OF_ASC_NODE":"197.1974","INCLINATION":"97.6583","OBJECT_TYPE":"PAYLOAD","PERIAPSIS":"561.528","MEAN_MOTION":"15.01254675","PERIOD":"95.920","CLASSIFICATION_TYPE":"U","LAUNCH_DATE":"2022-07-22","DECAY_DATE":null,"ELEMENT_SET_NO":"999","MEAN_ELEMENT_THEORY":"SGP4","APOAPSIS":"564.528","MEAN_MOTION_DDOT":"0.0000000000000","TLE_LINE1":"1 53192U 22084D   23135.66103083  .00001506  00000-0  12186-3 0  9990","REF_FRAME":"TEME","TLE_LINE2":"2 53192  97.6583 197.1974 0002161 208.4585 151.6522 15.01254675 45300","TIME_SYSTEM":"UTC","SITE":"AFWTR","GP_ID":"231901220","EPHEMERIS_TYPE":"0","OBJECT_ID":"2022-084D","MEAN_MOTION_DOT":"0.00001506","RCS_SIZE":"LARGE","SEMIMAJOR_AXIS":"6941.163","REV_AT_EPOCH":"4530","EPOCH":"2023-05-15T15:51:53.063712","MEAN_ANOMALY":"151.6522","OBJECT_NAME":"STARLINK-4375"},{"OBJECT_ID":"2022-084E","MEAN_MOTION_DOT":"0.00001018","RCS_SIZE":"LARGE","SEMIMAJOR_AXIS":"6941.156","REV_AT_EPOCH":"4531","EPOCH":"2023-05-15T15:59:52.698624","MEAN_ANOMALY":"155.1135","OBJECT_NAME":"STARLINK-4351","TLE_LINE2":"2 53193  97.6557 197.2003 0004430 204.9875 155.1135 15.01256999 45311","TIME_SYSTEM":"UTC","GP_ID":"231901221","SITE":"AFWTR","EPHEMERIS_TYPE":"0","DECAY_DATE":null,"LAUNCH_DATE":"2022-07-22","ELEMENT_SET_NO":"999","MEAN_ELEMENT_THEORY":"SGP4","APOAPSIS":"566.096","TLE_LINE1":"1 53193U 22084E   23135.66658216  .00001018  00000-0  83851-4 0  9990","MEAN_MOTION_DDOT":"0.0000000000000","REF_FRAME":"TEME","FILE":"3908802","BSTAR":"0.00008385100000","COUNTRY_CODE":"US","CENTER_NAME":"EARTH","NORAD_CAT_ID":"53193","ARG_OF_PERICENTER":"204.9875","RA_OF_ASC_NODE":"197.2003","ECCENTRICITY":"0.00044300","INCLINATION":"97.6557","OBJECT_TYPE":"PAYLOAD","PERIAPSIS":"559.946","MEAN_MOTION":"15.01256999","PERIOD":"95.920","CLASSIFICATION_TYPE":"U"}];
